[{"OBJECT_NAME":"NUSAT-44 (MARIA MITCHELL)","OBJECT_ID":"2024-043AA","EPOCH":"2026-03-09T22:12:18.524160","MEAN_MOTION":15.29764305,"ECCENTRICITY":0.0007331,"INCLINATION":97.5299,"RA_OF_ASC_NODE":207.7691,"ARG_OF_PERICENTER":214.9017,"MEAN_ANOMALY":145.1743,"EPHEMERIS_TYPE":0,"CLASSIFICATION_TYPE":"U","NORAD_CAT_ID":59122,"ELEMENT_SET_NO":999,"REV_AT_EPOCH":11209,"BSTAR":0.00061063193,"MEAN_MOTION_DOT":0.00017562,"MEAN_MOTION_DDOT":0},{"OBJECT_NAME":"STARLINK-34320","OBJECT_ID":"2025-117Q","EPOCH":"2026-03-09T07:27:00.129888","MEAN_MOTION":15.301919,"ECCENTRICITY":0.00013198,"INCLINATION":53.1616,"RA_OF_ASC_NODE":41.6498,"ARG_OF_PERICENTER":84.6365,"MEAN_ANOMALY":275.4786,"EPHEMERIS_TYPE":0,"CLASSIFICATION_TYPE":"U","NORAD_CAT_ID":64217,"ELEMENT_SET_NO":999,"REV_AT_EPOCH":4446,"BSTAR":0.00083722431,"MEAN_MOTION_DOT":0.00024513,"MEAN_MOTION_DDOT":0}]
